CCSDS_OMM_VERS = 2.0
CREATION_DATE  = 
ORIGINATOR     = 

OBJECT_NAME    = SL-16 R/B
OBJECT_ID      = 1998-045B
CENTER_NAME    = EARTH
REF_FRAME      = TEME
TIME_SYSTEM    = UTC
MEAN_ELEMENT_THEORY = SGP/SGP4

EPOCH          = 2026-03-26T17:41:14.380800
MEAN_MOTION    = 14.16194689
ECCENTRICITY   = .0007881
INCLINATION    = 71.0107
RA_OF_ASC_NODE = 145.7267
ARG_OF_PERICENTER = 341.4011
MEAN_ANOMALY   = 18.6823

EPHEMERIS_TYPE = 0
CLASSIFICATION_TYPE = U
NORAD_CAT_ID   = 25407
ELEMENT_SET_NO = 999
REV_AT_EPOCH   = 42951
BSTAR          = -.10055E-3
MEAN_MOTION_DOT = -.247E-5
MEAN_MOTION_DDOT = 0

CCSDS_OMM_VERS = 2.0
CREATION_DATE  = 
ORIGINATOR     = 

OBJECT_NAME    = ISS (ZARYA)
OBJECT_ID      = 1998-067A
CENTER_NAME    = EARTH
REF_FRAME      = TEME
TIME_SYSTEM    = UTC
MEAN_ELEMENT_THEORY = SGP/SGP4

EPOCH          = 2026-03-26T19:25:42.681792
MEAN_MOTION    = 15.48566257
ECCENTRICITY   = .0006206
INCLINATION    = 51.6341
RA_OF_ASC_NODE = 347.7277
ARG_OF_PERICENTER = 236.0994
MEAN_ANOMALY   = 123.9405

EPHEMERIS_TYPE = 0
CLASSIFICATION_TYPE = U
NORAD_CAT_ID   = 25544
ELEMENT_SET_NO = 999
REV_AT_EPOCH   = 55898
BSTAR          = .24531E-3
MEAN_MOTION_DOT = .1289E-3
MEAN_MOTION_DDOT = 0

CCSDS_OMM_VERS = 2.0
CREATION_DATE  = 
ORIGINATOR     = 

OBJECT_NAME    = CZ-4B R/B
OBJECT_ID      = 1999-025C
CENTER_NAME    = EARTH
REF_FRAME      = TEME
TIME_SYSTEM    = UTC
MEAN_ELEMENT_THEORY = SGP/SGP4

EPOCH          = 2026-03-26T09:00:36.021024
MEAN_MOTION    = 14.18268532
ECCENTRICITY   = .0036057
INCLINATION    = 98.6593
RA_OF_ASC_NODE = 129.2593
ARG_OF_PERICENTER = 297.6687
MEAN_ANOMALY   = 72.5234

EPHEMERIS_TYPE = 0
CLASSIFICATION_TYPE = U
NORAD_CAT_ID   = 25732
ELEMENT_SET_NO = 999
REV_AT_EPOCH   = 39053
BSTAR          = .46635E-4
MEAN_MOTION_DOT = .53E-6
MEAN_MOTION_DDOT = 0

CCSDS_OMM_VERS = 2.0
CREATION_DATE  = 
ORIGINATOR     = 

OBJECT_NAME    = OKEAN-O
OBJECT_ID      = 1999-039A
CENTER_NAME    = EARTH
REF_FRAME      = TEME
TIME_SYSTEM    = UTC
MEAN_ELEMENT_THEORY = SGP/SGP4

EPOCH          = 2026-03-26T14:49:34.260096
MEAN_MOTION    = 14.80361550
ECCENTRICITY   = .0000885
INCLINATION    = 97.9407
RA_OF_ASC_NODE = 145.3343
ARG_OF_PERICENTER = 88.0649
MEAN_ANOMALY   = 272.0664

EPHEMERIS_TYPE = 0
CLASSIFICATION_TYPE = U
NORAD_CAT_ID   = 25860
ELEMENT_SET_NO = 999
REV_AT_EPOCH   = 43689
BSTAR          = .91511E-4
MEAN_MOTION_DOT = .646E-5
MEAN_MOTION_DDOT = 0

CCSDS_OMM_VERS = 2.0
CREATION_DATE  = 
ORIGINATOR     = 

OBJECT_NAME    = SL-16 R/B
OBJECT_ID      = 1999-039B
CENTER_NAME    = EARTH
REF_FRAME      = TEME
TIME_SYSTEM    = UTC
MEAN_ELEMENT_THEORY = SGP/SGP4

EPOCH          = 2026-03-26T13:57:39.984192
MEAN_MOTION    = 14.81753607
ECCENTRICITY   = .0014381
INCLINATION    = 97.9930
RA_OF_ASC_NODE = 144.6502
ARG_OF_PERICENTER = 197.5513
MEAN_ANOMALY   = 162.5205

EPHEMERIS_TYPE = 0
CLASSIFICATION_TYPE = U
NORAD_CAT_ID   = 25861
ELEMENT_SET_NO = 999
REV_AT_EPOCH   = 43936
BSTAR          = .72753E-4
MEAN_MOTION_DOT = .52E-5
MEAN_MOTION_DDOT = 0

CCSDS_OMM_VERS = 2.0
CREATION_DATE  = 
ORIGINATOR     = 

OBJECT_NAME    = DELTA 2 R/B
OBJECT_ID      = 1999-041E
CENTER_NAME    = EARTH
REF_FRAME      = TEME
TIME_SYSTEM    = UTC
MEAN_ELEMENT_THEORY = SGP/SGP4

EPOCH          = 2026-03-26T10:21:37.673856
MEAN_MOTION    = 14.11874235
ECCENTRICITY   = .0502635
INCLINATION    = 51.7606
RA_OF_ASC_NODE = 234.4010
ARG_OF_PERICENTER = 37.8096
MEAN_ANOMALY   = 325.7055

EPHEMERIS_TYPE = 0
CLASSIFICATION_TYPE = U
NORAD_CAT_ID   = 25876
ELEMENT_SET_NO = 999
REV_AT_EPOCH   = 36539
BSTAR          = .15446E-3
MEAN_MOTION_DOT = .714E-5
MEAN_MOTION_DDOT = 0

CCSDS_OMM_VERS = 2.0
CREATION_DATE  = 
ORIGINATOR     = 

OBJECT_NAME    = HELIOS 1B
OBJECT_ID      = 1999-064A
CENTER_NAME    = EARTH
REF_FRAME      = TEME
TIME_SYSTEM    = UTC
MEAN_ELEMENT_THEORY = SGP/SGP4

EPOCH          = 2026-03-26T15:54:17.845056
MEAN_MOTION    = 14.87761510
ECCENTRICITY   = .0001942
INCLINATION    = 98.1673
RA_OF_ASC_NODE = 348.4033
ARG_OF_PERICENTER = 52.9684
MEAN_ANOMALY   = 307.1709

EPHEMERIS_TYPE = 0
CLASSIFICATION_TYPE = U
NORAD_CAT_ID   = 25977
ELEMENT_SET_NO = 999
REV_AT_EPOCH   = 68778
BSTAR          = .18984E-3
MEAN_MOTION_DOT = .1674E-4
MEAN_MOTION_DDOT = 0

CCSDS_OMM_VERS = 2.0
CREATION_DATE  = 
ORIGINATOR     = 

OBJECT_NAME    = TERRA
OBJECT_ID      = 1999-068A
CENTER_NAME    = EARTH
REF_FRAME      = TEME
TIME_SYSTEM    = UTC
MEAN_ELEMENT_THEORY = SGP/SGP4

EPOCH          = 2026-03-26T20:12:20.769120
MEAN_MOTION    = 14.61032421
ECCENTRICITY   = .0003518
INCLINATION    = 97.9557
RA_OF_ASC_NODE = 138.6184
ARG_OF_PERICENTER = 115.6326
MEAN_ANOMALY   = 332.5406

EPHEMERIS_TYPE = 0
CLASSIFICATION_TYPE = U
NORAD_CAT_ID   = 25994
ELEMENT_SET_NO = 999
REV_AT_EPOCH   = 39758
BSTAR          = .9886E-4
MEAN_MOTION_DOT = .441E-5
MEAN_MOTION_DDOT = 0

CCSDS_OMM_VERS = 2.0
CREATION_DATE  = 
ORIGINATOR     = 

OBJECT_NAME    = SL-16 R/B
OBJECT_ID      = 2000-006B
CENTER_NAME    = EARTH
REF_FRAME      = TEME
TIME_SYSTEM    = UTC
MEAN_ELEMENT_THEORY = SGP/SGP4

EPOCH          = 2026-03-26T07:59:26.427264
MEAN_MOTION    = 14.15825529
ECCENTRICITY   = .0015887
INCLINATION    = 71.0014
RA_OF_ASC_NODE = 62.8385
ARG_OF_PERICENTER = 163.8424
MEAN_ANOMALY   = 196.3209

EPHEMERIS_TYPE = 0
CLASSIFICATION_TYPE = U
NORAD_CAT_ID   = 26070
ELEMENT_SET_NO = 999
REV_AT_EPOCH   = 35091
BSTAR          = .16805E-3
MEAN_MOTION_DOT = .283E-5
MEAN_MOTION_DDOT = 0

CCSDS_OMM_VERS = 2.0
CREATION_DATE  = 
ORIGINATOR     = 

OBJECT_NAME    = TITAN 4B R/B
OBJECT_ID      = 2000-047B
CENTER_NAME    = EARTH
REF_FRAME      = TEME
TIME_SYSTEM    = UTC
MEAN_ELEMENT_THEORY = SGP/SGP4

EPOCH          = 2026-03-26T22:08:38.946336
MEAN_MOTION    = 15.09720918
ECCENTRICITY   = .0039795
INCLINATION    = 67.9912
RA_OF_ASC_NODE = 352.0478
ARG_OF_PERICENTER = 15.2274
MEAN_ANOMALY   = 345.0063

EPHEMERIS_TYPE = 0
CLASSIFICATION_TYPE = U
NORAD_CAT_ID   = 26474
ELEMENT_SET_NO = 999
REV_AT_EPOCH   = 39551
BSTAR          = .25121E-3
MEAN_MOTION_DOT = .4E-4
MEAN_MOTION_DDOT = 0

CCSDS_OMM_VERS = 2.0
CREATION_DATE  = 
ORIGINATOR     = 

OBJECT_NAME    = ENVISAT
OBJECT_ID      = 2002-009A
CENTER_NAME    = EARTH
REF_FRAME      = TEME
TIME_SYSTEM    = UTC
MEAN_ELEMENT_THEORY = SGP/SGP4

EPOCH          = 2026-03-26T20:20:54.365280
MEAN_MOTION    = 14.39042714
ECCENTRICITY   = .0001222
INCLINATION    = 98.3755
RA_OF_ASC_NODE = 39.0396
ARG_OF_PERICENTER = 81.5064
MEAN_ANOMALY   = 298.9111

EPHEMERIS_TYPE = 0
CLASSIFICATION_TYPE = U
NORAD_CAT_ID   = 27386
ELEMENT_SET_NO = 999
REV_AT_EPOCH   = 26164
BSTAR          = .52945E-4
MEAN_MOTION_DOT = .121E-5
MEAN_MOTION_DDOT = 0

CCSDS_OMM_VERS = 2.0
CREATION_DATE  = 
ORIGINATOR     = 

OBJECT_NAME    = IDEFIX & ARIANE 42P R/B
OBJECT_ID      = 2002-021B
CENTER_NAME    = EARTH
REF_FRAME      = TEME
TIME_SYSTEM    = UTC
MEAN_ELEMENT_THEORY = SGP/SGP4

EPOCH          = 2026-03-26T20:03:45.573696
MEAN_MOTION    = 14.31037480
ECCENTRICITY   = .0012529
INCLINATION    = 98.5889
RA_OF_ASC_NODE = 24.2393
ARG_OF_PERICENTER = 132.9462
MEAN_ANOMALY   = 227.2774

EPHEMERIS_TYPE = 0
CLASSIFICATION_TYPE = U
NORAD_CAT_ID   = 27422
ELEMENT_SET_NO = 999
REV_AT_EPOCH   = 24647
BSTAR          = .12742E-3
MEAN_MOTION_DOT = .292E-5
MEAN_MOTION_DDOT = 0

